{"fetched_at":"2026-03-29T02:12:04Z","count":15717,"tles":[{"name":"STARLINK-3832","line1":"1 52646U 22052BA  26087.47351795 -.00001958  00000+0 -10496-3 0  9995","line2":"2 52646  53.2200 174.8372 0001832 109.4133 250.7057 15.08826403213979","category":"Starlink"}]}