{
  "norad_id": 52646,
  "name": "STARLINK-3832",
  "history": [
    {
      "epoch": "2026-03-28T11:21:51.950880Z",
      "apogee_km": 541.0524515253028,
      "perigee_km": 538.5174482059929,
      "latitude_deg": -2.3203222253470762e-05,
      "longitude_deg": 178.47726440078517,
      "height_km": 541.1016963837023,
      "semi_major_axis_km": 6917.921949865648,
      "eccentricity": 0.00018322,
      "inclination_deg": 53.22,
      "raan_deg": 174.8372,
      "arg_perigee_deg": 109.4133,
      "mean_anomaly_deg": 250.7057,
      "mean_motion_rev_day": 15.08826403
    }
  ]
}